H1 CPF 01  gfz 2022 07 20 00  7011 tandemx   
H2 1003001  6202 36605    2022 07 20 00 59 42 2022 07 25 00 00 42   120 1 1  0 0 0
H9
10 0 59782  79182.000000  0     400628.674   1073032.293  -6799592.404
10 0 59782  79302.000000  0     868139.318    283658.568  -6834673.226
10 0 59782  79422.000000  0    1306695.255   -518553.175  -6750585.835
10 0 59782  79542.000000  0    1708602.022  -1319139.894  -6548776.937
10 0 59782  79662.000000  0    2067043.672  -2103529.506  -6232718.280
10 0 59782  79782.000000  0    2376197.208  -2857299.424  -5807853.998
10 0 59782  79902.000000  0    2631327.590  -3566438.509  -5281518.380
10 0 59782  80022.000000  0    2828862.453  -4217608.933  -4662819.617
10 0 59782  80142.000000  0    2966442.860  -4798398.197  -3962491.390
10 0 59782  80262.000000  0    3042950.681  -5297559.872  -3192717.919
10 0 59782  80382.000000  0    3058511.913  -5705240.499  -2366930.306
10 0 59782  80502.000000  0    3014474.786  -6013183.322  -1499575.694
10 0 59782  80622.000000  0    2913363.088  -6214904.908   -605864.500
10 0 59782  80742.000000  0    2758803.881  -6305839.319    298501.227
10 0 59782  80862.000000  0    2555431.762  -6283443.691   1197610.306
10 0 59782  80982.000000  0    2308772.836  -6147265.650   2075630.798
10 0 59782  81102.000000  0    2025109.819  -5898966.724   2917099.224
10 0 59782  81222.000000  0    1711332.656  -5542302.004   3707200.205
10 0 59782  81342.000000  0    1374778.355  -5083059.160   4432032.259
10 0 59782  81462.000000  0    1023064.962  -4528957.688   5078854.930
10 0 59782  81582.000000  0     663923.066  -3889511.495   5636314.096
10 0 59782  81702.000000  0     305028.033  -3175855.029   6094639.255
10 0 59782  81822.000000  0     -46161.477  -2400540.454   6445808.353
10 0 59782  81942.000000  0    -382556.001  -1577311.815   6683681.189
10 0 59782  82062.000000  0    -697576.113   -720859.161   6804101.375
10 0 59782  82182.000000  0    -985279.643    153445.173   6804965.581
10 0 59782  82302.000000  0   -1240473.084   1029822.982   6686257.967
10 0 59782  82422.000000  0   -1458804.918   1892374.413   6450050.087
10 0 59782  82542.000000  0   -1636839.981   2725365.783   6100467.157
10 0 59782  82662.000000  0   -1772113.945   3513517.186   5643620.235
10 0 59782  82782.000000  0   -1863166.385   4242284.782   5087505.075
10 0 59782  82902.000000  0   -1909552.746   4898134.406   4441869.158
10 0 59782  83022.000000  0   -1911834.394   5468800.466   3718045.502
10 0 59782  83142.000000  0   -1871546.733   5943524.220   2928756.518
10 0 59782  83262.000000  0   -1791146.747   6313265.417   2087890.239
10 0 59782  83382.000000  0   -1673939.835   6570883.470   1210253.086
10 0 59782  83502.000000  0   -1523987.170   6711282.257    311303.473
10 0 59782  83622.000000  0   -1345997.051   6731515.115   -593127.536
10 0 59782  83742.000000  0   -1145202.646   6630848.432  -1487124.676
10 0 59782  83862.000000  0    -927227.988   6410777.097  -2354980.065
10 0 59782  83982.000000  0    -697948.123   6074992.908  -3181475.618
10 0 59782  84102.000000  0    -463346.489   5629311.802  -3952151.887
10 0 59782  84222.000000  0    -229372.658   5081561.809  -4653560.939
10 0 59782  84342.000000  0      -1803.951   4441433.234  -5273497.407
10 0 59782  84462.000000  0     213886.345   3720296.421  -5801204.223
10 0 59782  84582.000000  0     412650.918   2930990.141  -6227550.232
10 0 59782  84702.000000  0     589977.450   2087586.417  -6545176.592
10 0 59782  84822.000000  0     741983.612   1205138.162  -6748612.151
10 0 59782  84942.000000  0     865496.409    299412.408  -6834358.337
10 0 59782  85062.000000  0     958114.512   -613386.881  -6800942.819
10 0 59782  85182.000000  0    1018252.754  -1516902.749  -6648940.831
10 0 59782  85302.000000  0    1045168.484  -2394909.821  -6380965.033
10 0 59782  85422.000000  0    1038970.187  -3231597.914  -6001627.239
10 0 59782  85542.000000  0    1000606.956  -4011854.342  -5517469.041
10 0 59782  85662.000000  0     931839.155  -4721536.777  -4936858.332
10 0 59782  85782.000000  0     835191.749  -5347732.053  -4269856.315
10 0 59782  85902.000000  0     713889.456  -5878998.672  -3528054.211
10 0 59782  86022.000000  0     571775.290  -6305585.931  -2724379.929
10 0 59782  86142.000000  0     413214.365  -6619624.943  -1872878.580
10 0 59782  86262.000000  0     242984.652  -6815287.270   -988468.384
10 0 59782  86382.000000  0      66156.836  -6888904.484    -86676.311
10 0 59783    102.000000  0    -112033.625  -6839045.644    816639.849
10 0 59783    222.000000  0    -286318.859  -6666551.312   1705577.621
10 0 59783    342.000000  0    -451532.232  -6374522.138   2564479.256
10 0 59783    462.000000  0    -602739.564  -5968260.755   3378217.563
10 0 59783    582.000000  0    -735363.841  -5455167.081   4132469.495
10 0 59783    702.000000  0    -845301.728  -4844595.022   4813971.218
10 0 59783    822.000000  0    -929028.072  -4147672.366   5410752.552
10 0 59783    942.000000  0    -983685.940  -3377088.645   5912346.498
10 0 59783   1062.000000  0   -1007160.818  -2546853.630   6309969.340
10 0 59783   1182.000000  0    -998136.492  -1672035.495   6596666.639
10 0 59783   1302.000000  0    -956132.638   -768484.853   6767428.706
10 0 59783   1422.000000  0    -881524.372    147454.328   6819273.803
10 0 59783   1542.000000  0    -775542.124   1059240.566   6751296.967
10 0 59783   1662.000000  0    -640250.965   1950433.277   6564685.046
10 0 59783   1782.000000  0    -478510.596   2804988.832   6262697.101
10 0 59783   1902.000000  0    -293916.889   3607549.630   5850611.109
10 0 59783   2022.000000  0     -90726.231   4343722.670   5335636.781
10 0 59783   2142.000000  0     126236.851   5000341.833   4726795.509
10 0 59783   2262.000000  0     351687.225   5565711.748   4034768.047
10 0 59783   2382.000000  0     579998.878   6029822.533   3271709.401
10 0 59783   2502.000000  0     805334.739   6384538.775   2451042.047
10 0 59783   2622.000000  0    1021786.051   6623755.545   1587214.103
10 0 59783   2742.000000  0    1223513.848   6743508.931    695439.465
10 0 59783   2862.000000  0    1404891.396   6742045.840   -208577.691
10 0 59783   2982.000000  0    1560643.398   6619849.059  -1108927.714
10 0 59783   3102.000000  0    1685977.695   6379617.585  -1989783.352
10 0 59783   3222.000000  0    1776707.014   6026203.692  -2835684.978
10 0 59783   3342.000000  0    1829357.549   5566507.581  -3631817.503
10 0 59783   3462.000000  0    1841261.803   5009332.130  -4364272.658
10 0 59783   3582.000000  0    1810633.477   4365201.898  -5020290.330
10 0 59783   3702.000000  0    1736622.677   3646153.183  -5588474.571
10 0 59783   3822.000000  0    1619351.389   2865500.810  -6058983.018
10 0 59783   3942.000000  0    1459927.557   2037585.110  -6423686.691
10 0 59783   4062.000000  0    1260438.919   1177506.752  -6676298.134
10 0 59783   4182.000000  0    1023927.204    300853.456  -6812470.071
10 0 59783   4302.000000  0     754341.817   -576578.540  -6829862.253
10 0 59783   4422.000000  0     456474.398  -1439063.272  -6728176.057
10 0 59783   4542.000000  0     135875.854  -2271218.704  -6509157.775
10 0 59783   4662.000000  0    -201243.490  -3058273.670  -6176573.720
10 0 59783   4782.000000  0    -548130.637  -3786327.342  -5736153.023
10 0 59783   4902.000000  0    -897619.950  -4442593.269  -5195498.263
10 0 59783   5022.000000  0   -1242275.721  -5015626.865  -4563966.342
10 0 59783   5142.000000  0   -1574545.459  -5495531.913  -3852517.792
10 0 59783   5262.000000  0   -1886920.505  -5874140.927  -3073535.855
10 0 59783   5382.000000  0   -2172100.424  -6145165.202  -2240617.937
10 0 59783   5502.000000  0   -2423157.828  -6304311.449  -1368341.946
10 0 59783   5622.000000  0   -2633699.518  -6349361.243   -472010.321
10 0 59783   5742.000000  0   -2798019.806  -6280209.264    432623.520
10 0 59783   5862.000000  0   -2911241.529  -6098858.520   1329639.517
10 0 59783   5982.000000  0   -2969441.128  -5809373.122   2203240.102
10 0 59783   6102.000000  0   -2969754.372  -5417788.861   3038037.568
10 0 59783   6222.000000  0   -2910459.751  -4931984.578   3819332.706
10 0 59783   6342.000000  0   -2791037.634  -4361518.041   4533378.928
10 0 59783   6462.000000  0   -2612204.773  -3717430.598   5167626.700
10 0 59783   6582.000000  0   -2375922.892  -3012025.070   5710944.196
10 0 59783   6702.000000  0   -2085380.303  -2258623.064   6153809.015
10 0 59783   6822.000000  0   -1744948.582  -1471308.730   6488470.327
10 0 59783   6942.000000  0   -1360114.679   -664661.313   6709079.794
10 0 59783   7062.000000  0    -937390.713    146517.912   6811786.197
10 0 59783   7182.000000  0    -484204.040    947475.987   6794797.741
10 0 59783   7302.000000  0      -8766.762   1723776.120   6658412.278
10 0 59783   7422.000000  0     480073.021   2461557.850   6405012.449
10 0 59783   7542.000000  0     972995.406   3147784.377   6039026.064
10 0 59783   7662.000000  0    1460385.188   3770474.208   5566853.756
10 0 59783   7782.000000  0    1932518.366   4318914.219   4996762.964
10 0 59783   7902.000000  0    2379756.373   4783850.024   4338749.221
10 0 59783   8022.000000  0    2792743.346   5157648.349   3604364.714
10 0 59783   8142.000000  0    3162601.836   5434429.052   2806519.808
10 0 59783   8262.000000  0    3481125.535   5610167.456   1959256.111
10 0 59783   8382.000000  0    3740960.497   5682756.062   1077493.402
10 0 59783   8502.000000  0    3935770.207   5652028.554    176761.277
10 0 59783   8622.000000  0    4060382.943   5519743.993   -727083.190
10 0 59783   8742.000000  0    4110915.680   5289531.503  -1618142.678
10 0 59783   8862.000000  0    4084872.500   4966798.450  -2480767.039
10 0 59783   8982.000000  0    3981214.017   4558603.461  -3299834.797
10 0 59783   9102.000000  0    3800396.194   4073497.638  -4061022.009
10 0 59783   9222.000000  0    3544379.201   3521339.472  -4751051.760
99
